[{"OBJECT_NAME":"CONTINUUM-1","OBJECT_ID":"2023-001AN","EPOCH":"2026-03-09T23:17:35.458656","MEAN_MOTION":15.27981258,"ECCENTRICITY":0.00109493,"INCLINATION":97.3456,"RA_OF_ASC_NODE":133.3964,"ARG_OF_PERICENTER":60.1976,"MEAN_ANOMALY":300.0351,"EPHEMERIS_TYPE":0,"CLASSIFICATION_TYPE":"U","NORAD_CAT_ID":55045,"ELEMENT_SET_NO":999,"REV_AT_EPOCH":17709,"BSTAR":0.00052859897,"MEAN_MOTION_DOT":0.00014395,"MEAN_MOTION_DDOT":0},{"OBJECT_NAME":"STARLINK-35857","OBJECT_ID":"2025-303Z","EPOCH":"2026-03-09T01:56:45.507264","MEAN_MOTION":15.27594448,"ECCENTRICITY":0.00011,"INCLINATION":43.0011,"RA_OF_ASC_NODE":314.0191,"ARG_OF_PERICENTER":308.1629,"MEAN_ANOMALY":51.9124,"EPHEMERIS_TYPE":0,"CLASSIFICATION_TYPE":"U","NORAD_CAT_ID":67186,"ELEMENT_SET_NO":999,"REV_AT_EPOCH":1264,"BSTAR":0.00093066942,"MEAN_MOTION_DOT":0.00025447,"MEAN_MOTION_DDOT":0}]
